#dP2022  8 15 12  0  0.00000000      96 __u+U ITR00 EXT  IAC
## 2223 129600.00000000   900.00000000 59806 0.5000000000000
+  117   C06C07C08C09C10C11C12C13C14C16C19C20C21C22C23C24C25
+        C26C27C28C29C30C32C33C34C35C36C37C38C39C40C41C42C43
+        C44C45C46E01E02E03E04E05E07E08E09E10E11E12E13E14E15
+        E18E19E21E24E25E26E27E30E31E33E34E36G01G02G03G04G05
+        G06G07G08G09G10G11G12G13G14G15G16G17G18G19G20G21G22
+        G23G24G25G26G27G28G29G30G31G32J02J03R01R02R03R04R05
+        R07R08R09R11R12R13R14R15R17R18R19R20R21R24R25  0  0
++        11 11 10 11 10  9  8 10  8 11  7  7  7  8  8  8  8
++         7  9  9  8  8  8  9  8  7  9  8 12 11 10 10  7  9
++         9 10  9  9  7  7  8  7  8  7  7  8  6  8  9  9  6
++         8  8  9  8  8  7  7  8  8  8  8  7  8  7  8  7  8
++         7  9  9  8  9  6  7  8  7  6  8  9  6  6  7  9  9
++         8  7  6  7  8  9  7  9  8  8  8  8  9  7  9 10 10
++         8 10  8  8  8  7  7  8  7  9 10  9  8  7 11  0  0
%c M  cc GPS ccc cccc cccc cccc cccc ccccc ccccc ccccc ccccc
%c cc cc ccc ccc cccc cccc cccc cccc ccccc ccccc ccccc ccccc
%f  0.0000000  0.000000000  0.00000000000  0.000000000000000
%f  0.0000000  0.000000000  0.00000000000  0.000000000000000
%i    0    0    0    0      0      0      0      0         0
%i    0    0    0    0      0      0      0      0         0
/* IAC                                ULTRA-RAPID PREDICTION
/* S/V CLOCKS ARE ALIGNED TO GNSS TIME                      
/* G:C1WC2W R:C1PC2P E:C1XC5X C:C2IC6I J:C1CC2S             
/* PCV:IGS14_2218 OL/AL:FES2004  NONE     YN ORB:CoN CLK:CoN
*  2022 08 15 22 30  0.00000000
PC06  -1572.534911  31679.684294 -27646.671409    619.636005
PC07 -15118.884008  27518.710921  28107.179624     -7.885407
PC08 -13969.979219  39745.316159  -3302.047355    442.068507
PC09   5218.378410  35474.456184 -21403.962081   -894.111917
PC10  -6892.413874  28026.426702  30902.550766    108.149918
PC11 -20740.374988  -6840.375458  17410.204035   -467.217781
PC12 -18998.040583 -20361.672749   1610.162276   -549.383912
PC13  -9242.743279  40324.203369  -8765.595760     53.671315
PC14 -27346.138668   2412.160740   4853.080237    593.566006
PC16  -3809.255552  29496.091577 -29582.275204    142.386310
PC19  26089.027052  -8801.720045   4633.411151   -438.033403
PC20  25029.693335   3069.621104 -11978.119855    109.941943
PC21  -8721.506660 -13960.139462  22541.120723   -194.191386
PC22  12171.184367 -16087.669179  19288.653740   -191.444610
PC23 -10305.334715  25829.720785  -2312.322495   -964.823186
PC24 -14170.983828  -8622.307918 -22438.938224   -968.932160
PC25 -17107.337956  13797.330862 -17210.902465   -692.401886
PC26  -4089.490379 -23243.653786 -14872.496789    694.615778
PC27  13864.647564  23192.184904   6937.583075      5.855272
PC28  -1649.581582  19283.111347  20108.625289      1.678319
PC29  16968.891519  -4067.175764 -21787.197253   -184.592791
PC30  22255.309412  13679.867967  -9801.650270    502.122579
PC32   8780.024453  13914.607615 -22531.414555   -633.028776
PC33 -26056.453879   8885.360551  -4511.609495   -419.803073
PC34 -22326.249027 -12870.920528  10713.154965   -335.394982
PC35   2215.408085 -18669.274624 -20641.992270    414.053714
PC36  17507.733402 -12798.945017  17591.418885   -968.653089
PC37   2647.990475  24041.208748  13958.804969   -933.601830
PC38 -17627.801280  38113.433652   4701.538733     17.408078
PC39  -7681.068884  25741.212252 -32425.699619     -0.271122
PC40 -21701.591882  21183.231311  29184.854590     -2.394986
PC41 -12639.296649  16065.015194 -18950.029322   -170.156008
PC42 -24421.914680  -3873.439874  12952.653607   -121.314602
PC43 -17507.954043   3358.068697  21462.502427      8.823297
PC44 -14501.369072 -22769.530289  -7137.389496     18.739514
PC45  10104.790465 -25922.964502   2021.419160    835.961628
PC46  14759.175304   6825.745097  22689.711026   -488.581906
PE01  -2797.398180  21150.387158  20526.662989   -535.458571
PE02   2619.097914 -21071.275735 -20612.645107    318.592086
PE03  -9317.560125 -18637.646308  21015.691330   -589.846690
PE04  25563.843982  13350.658954  -6666.663970  -1094.278403
PE05  12747.065829 -13072.913843  23300.396989   -153.171611
PE07 -27049.803032     -3.949024 -12003.761669   -696.933099
PE08 -25672.495084 -13169.827165   6577.046038   -581.896054
PE09  27063.409745     36.549825  12010.118959   -624.254371
PE10  16880.253712   8950.118797 -22625.498867   -507.719650
PE11  15804.477550  -3200.776483 -24838.676727   2619.152159
PE12  15260.709737  18893.247651 -16924.345366   -117.157462
PE13 -15894.161331   2323.826427  24858.635462    430.259460
PE14 -19989.249287   1182.836270  12278.523765  -1748.464699
PE15 -15195.925800 -19042.456533  16807.747579    726.645853
PE18  25393.677795  -4978.427370 -19698.868902  -1090.795170
PE19   6539.573920  18438.548573 -22207.710549  -4799.461098
PE21 -18457.104124  22241.393686   6392.683270   -752.035669
PE24  24651.842116  -9642.840255  13224.016696   -782.860701
PE25  18661.578254 -22150.292262  -6093.856954   -584.669290
PE26  -6880.049523  22828.121662  17544.822477  -1499.311801
PE27 -24693.597061  10673.493508 -12343.860057   -369.195138
PE30 -15687.202836  -7939.935035 -23815.097108   -757.524062
PE31  16340.347689   7082.348073  23657.539781   -501.738427
PE33   5540.037790  29056.296310   1106.588241   -453.818143
PE34  -5692.528130 -29024.173853   -944.330808   -491.128898
PE36   7269.288145 -22135.263630 -18262.453645   -417.285448
PG01 -13340.406715   7741.150772  21256.904809    301.407500
PG02  15236.340907   8301.263304 -19444.056738   -649.001902
PG03 -22993.992611  11512.378470   6284.447018   -332.500647
PG04 -21560.887643   1563.174047 -15490.789614   -132.517577
PG05  20505.419008  -1108.583612 -17097.160433    -93.024210
PG06   6533.481184  24980.045322  -6002.074572    426.428709
PG07  -6608.078760  22054.474031 -12380.703369    314.320448
PG08 -25109.328808  -4353.076280   8060.417657    -80.629247
PG09 -12158.612100  10997.036239 -20977.662633   -307.756737
PG10   4096.278016 -18603.898737  18525.004176   -529.341309
PG11  12202.413180  17171.254265 -16198.471724    -11.380431
PG12  23763.371047  -8695.701141   7631.648632   -262.885906
PG13  23048.751583  13344.502520   1050.748289    368.598512
PG14  -6369.472254  19132.182799  17237.891554   -109.059628
PG15  25477.052232   1722.858723   7419.965682    -36.977049
PG16 -16986.043603  -5839.579845 -19986.223914   -520.619945
PG17   3389.804583  17203.694763  20366.901214    648.801384
PG18   6487.356381 -22519.342148 -12385.144066     80.616797
PG19  13204.325743  18391.108069  13837.171810    197.680591
PG20  11950.434685  10032.974066 -21479.832008    494.491780
PG21 -15998.243552  -2633.425863  21761.498678    160.454953
PG22 -15197.928678 -18225.250783  12527.181446    310.507671
PG23  13741.615421 -19955.730876  10729.540791    -37.003608
PG24  15240.148819  -3539.406547  21143.599907    167.194351
PG25  19311.229108 -17676.099254  -3787.192312    361.246698
PG26  -9197.271161 -12852.692763 -21424.841449    223.864890
PG27 -23061.067916 -13082.540844  -3935.040748    219.090392
PG28   2446.959537  15930.225273  21657.741444    340.455199
PG29  13035.643930  -9209.677123 -21292.565454   -543.133030
PG30    422.410038  26267.779317  -2730.151498   -535.922816
PG31  -8011.444364 -23653.255701  -8461.210492   -189.778586
PG32  -7369.785465 -17532.875050  18765.870862   -204.937445
PJ02 -29727.059323  29917.226869   4450.060947     -3.219353
PJ03 -24800.499042  24276.046509  29027.910308     -0.684114
PR01  17013.319389   7567.289325 -17442.227972     13.189863
PR02  25469.092134   -479.036323    176.102373    527.028325
PR03  17890.292902  -8121.760612  16275.253548     61.903372
PR04    613.386229 -10804.137077  23123.347063    154.039305
PR05 -17065.728897  -7806.317207  17297.714834     97.994297
PR07 -17407.018314   8286.385747 -16694.802626     39.435656
PR08   -459.925215  10894.819877 -23006.044414    -66.709753
PR09 -14445.023828   6385.626603 -19982.296360     71.420695
PR11  -6491.112416  22545.146006  10007.034152     30.299992
PR12   5894.636294  11376.103938  22091.013081     20.058339
PR13  13912.601916  -5062.333320  20765.222600    -25.758956
PR14  14299.678768 -20119.719871   6495.346393     24.507939
PR15   6148.715677 -22272.696278 -10788.482708     94.173718
PR17   5773.682565 -10299.833419 -22600.690156    552.708503
PR18  -5713.475438 -21169.195239 -13061.093939     37.701630
PR19 -13141.606999 -21755.243826   2082.804393   -200.129150
PR20 -14323.435630  -7994.901914  19549.317650    -76.581894
PR21  -4688.536751  11652.857975  22202.565472   -325.847214
PR24  14694.441144   6757.514125 -19721.624843    109.127376
PR25   5051.047822  21703.428899  12430.011779     12.113266
EOF
